{"type":"FeatureCollection","attribution":"© OpenStreetMap contributors (ODbL)","features":[{"type":"Feature","properties":{"name":"กำแพงเพชร"},"geometry":{"type":"MultiPolygon","coordinates":[[[[99.43262,16.87586],[99.42306,16.88298],[99.41718,16.8763],[99.41285,16.87477],[99.41106,16.87248],[99.40617,16.87259],[99.39991,16.87063],[99.39345,16.87104],[99.38321,16.86631],[99.37867,16.85901],[99.38077,16.85445],[99.37941,16.8519],[99.37993,16.85022],[99.37797,16.84784],[99.37887,16.84602],[99.38581,16.84387],[99.3854,16.84106],[99.38725,16.83819],[99.38461,16.83063],[99.38762,16.82628],[99.38399,16.82205],[99.38204,16.8218],[99.38833,16.81322],[99.38539,16.80785],[99.38132,16.80787],[99.3732,16.80374],[99.36956,16.80355],[99.3629,16.80583],[99.35474,16.81092],[99.35072,16.81081],[99.34575,16.81335],[99.3411,16.81351],[99.33428,16.81131],[99.32466,16.81324],[99.32249,16.81171],[99.31534,16.79413],[99.31268,16.79325],[99.31023,16.79418],[99.3059,16.79022],[99.30424,16.78695],[99.2979,16.78915],[99.29184,16.78503],[99.29177,16.7832],[99.29418,16.77983],[99.29506,16.77209],[99.30405,16.77011],[99.30564,16.76796],[99.30473,16.75918],[99.30277,16.75524],[99.30383,16.74971],[99.30194,16.74576],[99.30247,16.73962],[99.29881,16.73488],[99.29835,16.73062],[99.29624,16.72963],[99.29767,16.72783],[99.29533,16.72327],[99.29573,16.7198],[99.29276,16.71683],[99.2879,16.71491],[99.28691,16.71092],[99.28294,16.70629],[99.28254,16.70247],[99.28516,16.69581],[99.28201,16.69346],[99.28225,16.68974],[99.2773,16.68588],[99.27165,16.68487],[99.27107,16.68269],[99.27485,16.67784],[99.27245,16.67419],[99.27195,16.66877],[99.2654,16.67116],[99.26102,16.66713],[99.25864,16.667],[99.25792,16.66523],[99.2536,16.66589],[99.24695,16.6629],[99.24839,16.65727],[99.24544,16.65572],[99.2471,16.6517],[99.2462,16.6502],[99.24787,16.64836],[99.24764,16.64638],[99.24576,16.64555],[99.24727,16.6442],[99.24569,16.64303],[99.24625,16.64198],[99.24357,16.64253],[99.24115,16.64065],[99.24379,16.63623],[99.24157,16.63075],[99.24381,16.62689],[99.24154,16.62364],[99.24434,16.62198],[99.24295,16.61877],[99.24635,16.61786],[99.24654,16.61225],[99.25062,16.60936],[99.2521,16.60533],[99.25551,16.60356],[99.25201,16.59908],[99.25145,16.59675],[99.25259,16.59466],[99.25014,16.59081],[99.25457,16.58398],[99.25448,16.57917],[99.25658,16.57742],[99.25392,16.5743],[99.25536,16.57276],[99.25637,16.56706],[99.2531,16.56091],[99.24881,16.55941],[99.24505,16.55468],[99.24485,16.55327],[99.2479,16.55129],[99.24786,16.54947],[99.24558,16.54618],[99.24333,16.54584],[99.24208,16.53942],[99.23898,16.53809],[99.24013,16.53363],[99.23652,16.53207],[99.23045,16.53461],[99.22424,16.53328],[99.21938,16.52777],[99.20457,16.53207],[99.19931,16.53137],[99.19682,16.53691],[99.19066,16.53908],[99.1887,16.53449],[99.19136,16.53101],[99.18004,16.53216],[99.17861,16.53076],[99.1805,16.5281],[99.1795,16.52636],[99.17571,16.52578],[99.17058,16.5213],[99.16738,16.51309],[99.1676,16.51057],[99.17174,16.51196],[99.17416,16.51112],[99.16615,16.5031],[99.16371,16.50224],[99.16371,16.50548],[99.16206,16.50655],[99.15894,16.50302],[99.15576,16.50423],[99.15446,16.49942],[99.15081,16.50292],[99.14781,16.49945],[99.14387,16.4986],[99.14193,16.50047],[99.13996,16.50038],[99.1385,16.49867],[99.13788,16.4935],[99.13507,16.4942],[99.13406,16.48955],[99.12968,16.48936],[99.13048,16.48659],[99.12543,16.48525],[99.12802,16.4825],[99.1249,16.48197],[99.12515,16.47986],[99.12301,16.47856],[99.12266,16.47496],[99.12095,16.47467],[99.11942,16.47625],[99.119,16.47745],[99.12131,16.47782],[99.12009,16.47893],[99.11515,16.47819],[99.11327,16.47963],[99.11035,16.47791],[99.10728,16.48099],[99.10588,16.47644],[99.1014,16.47818],[99.09997,16.47763],[99.10034,16.47432],[99.09883,16.47283],[99.09553,16.47586],[99.09286,16.47485],[99.09214,16.47308],[99.08755,16.47245],[99.0841,16.46947],[99.08121,16.46974],[99.07447,16.46712],[99.0704,16.46215],[99.06822,16.46185],[99.06429,16.45851],[99.06447,16.45623],[99.06192,16.45174],[99.0553,16.44707],[99.05442,16.44443],[99.05145,16.44347],[99.04923,16.44099],[99.04542,16.44143],[99.04047,16.43793],[99.03913,16.43486],[99.03565,16.43251],[99.03098,16.4264],[99.03077,16.42168],[99.02433,16.4231],[99.02203,16.41941],[99.0198,16.41854],[99.01936,16.39245],[99.01639,16.38671],[99.02197,16.38216],[99.03163,16.38504],[99.03677,16.38323],[99.03877,16.37825],[99.04188,16.3749],[99.04077,16.36884],[99.04303,16.36428],[99.04157,16.36069],[99.04178,16.35691],[99.04481,16.35373],[99.04146,16.34465],[99.04263,16.33893],[99.05105,16.33528],[99.0516,16.33393],[99.05195,16.32368],[99.0531,16.32311],[99.05018,16.31605],[99.05337,16.30903],[99.05086,16.30425],[99.04431,16.29978],[99.04208,16.29213],[99.0467,16.28244],[99.04545,16.27632],[99.04775,16.27034],[99.04856,16.26014],[99.0497,16.25756],[99.05328,16.25496],[99.05539,16.24958],[99.05492,16.2469],[99.06399,16.24106],[99.06523,16.23567],[99.07227,16.22945],[99.07424,16.22201],[99.07932,16.2189],[99.08131,16.20937],[99.08036,16.20198],[99.07647,16.19784],[99.0737,16.1968],[99.0734,16.18757],[99.0702,16.182],[99.0699,16.17413],[99.06796,16.17107],[99.06806,16.16549],[99.05828,16.16399],[99.0561,16.16481],[99.05539,16.16305],[99.05083,16.16133],[99.05135,16.15708],[99.04922,16.14443],[99.05078,16.14207],[99.05013,16.13795],[99.05328,16.13483],[99.05953,16.13297],[99.06866,16.13231],[99.07494,16.12695],[99.08065,16.12484],[99.08316,16.11468],[99.0896,16.11474],[99.09436,16.1026],[99.10379,16.10325],[99.10657,16.10225],[99.108,16.10035],[99.10897,16.09258],[99.10669,16.09024],[99.10645,16.08708],[99.10843,16.08533],[99.10937,16.08194],[99.11408,16.08036],[99.11464,16.07662],[99.11743,16.07464],[99.11334,16.0644],[99.11455,16.06042],[99.10861,16.05543],[99.10555,16.0495],[99.09752,16.04784],[99.08725,16.04247],[99.08657,16.03191],[99.08328,16.02229],[99.08215,16.00592],[99.08397,16.00336],[99.08391,15.99992],[99.08603,15.99812],[99.087,15.99496],[99.0866,15.99185],[99.08801,15.98932],[99.08714,15.98595],[99.08851,15.98441],[99.08859,15.97972],[99.08692,15.97752],[99.08607,15.97243],[99.08192,15.97021],[99.07946,15.96396],[99.07458,15.96232],[99.07442,15.95418],[99.07524,15.95151],[99.07985,15.95049],[99.08066,15.94865],[99.08631,15.94811],[99.08704,15.94609],[99.08899,15.94521],[99.09036,15.93751],[99.0945,15.93467],[99.097,15.93047],[99.09571,15.92464],[99.08622,15.91464],[99.08576,15.89999],[99.08832,15.89706],[99.08842,15.89218],[99.08666,15.88971],[99.08582,15.88495],[99.08944,15.88554],[99.09249,15.8829],[99.09549,15.88263],[99.09992,15.8892],[99.10488,15.89092],[99.10712,15.89534],[99.11518,15.89992],[99.1285,15.91206],[99.13028,15.91171],[99.13043,15.90905],[99.13568,15.90758],[99.13759,15.90559],[99.14584,15.90778],[99.15311,15.91387],[99.15441,15.91661],[99.15337,15.91994],[99.15655,15.91985],[99.16166,15.92459],[99.16374,15.92394],[99.16417,15.92615],[99.17372,15.92825],[99.17357,15.93271],[99.17186,15.93575],[99.17246,15.93728],[99.17418,15.93693],[99.17578,15.93393],[99.17929,15.93353],[99.18615,15.9283],[99.1914,15.93175],[99.19192,15.93752],[99.19451,15.93773],[99.19549,15.93951],[99.1948,15.94208],[99.19255,15.94287],[99.19425,15.94542],[99.20422,15.93625],[99.20466,15.9431],[99.20698,15.94691],[99.20996,15.94838],[99.21251,15.94413],[99.21761,15.94345],[99.21362,15.93901],[99.21956,15.93671],[99.22065,15.93765],[99.22066,15.94439],[99.22262,15.94466],[99.22393,15.94346],[99.22545,15.93685],[99.23126,15.93329],[99.23425,15.92826],[99.25189,15.91705],[99.25892,15.91478],[99.26619,15.90754],[99.26798,15.9073],[99.26819,15.91214],[99.27129,15.91195],[99.27349,15.90837],[99.27386,15.90379],[99.27842,15.90322],[99.28139,15.89795],[99.28707,15.8965],[99.28959,15.8916],[99.29231,15.89365],[99.2921,15.90022],[99.28891,15.90174],[99.28993,15.90503],[99.29442,15.90292],[99.29512,15.9072],[99.29735,15.90893],[99.30192,15.90786],[99.30446,15.90364],[99.31022,15.90457],[99.31179,15.90718],[99.31039,15.91737],[99.31275,15.91905],[99.31877,15.91674],[99.32016,15.91781],[99.31877,15.92499],[99.31966,15.92745],[99.32762,15.92064],[99.32573,15.91612],[99.32913,15.91173],[99.3338,15.91159],[99.34333,15.92005],[99.35177,15.92463],[99.35805,15.92598],[99.37355,15.91542],[99.37683,15.9151],[99.37867,15.91665],[99.38274,15.91709],[99.39051,15.91626],[99.39175,15.91722],[99.39459,15.91461],[99.40172,15.91396],[99.40434,15.91057],[99.4151,15.91051],[99.41778,15.91501],[99.42056,15.91467],[99.42158,15.91736],[99.42338,15.91759],[99.42561,15.92032],[99.4269,15.91969],[99.4271,15.91707],[99.42999,15.91492],[99.4311,15.90945],[99.4327,15.90905],[99.43651,15.9111],[99.43945,15.90645],[99.44742,15.90242],[99.44927,15.9051],[99.45563,15.90417],[99.46054,15.90538],[99.46631,15.90068],[99.47696,15.90238],[99.47576,15.90623],[99.47991,15.9083],[99.48156,15.9108],[99.47836,15.91755],[99.47852,15.92194],[99.49311,15.92428],[99.50224,15.92836],[99.5087,15.92621],[99.51045,15.92382],[99.51277,15.92338],[99.52377,15.92554],[99.52423,15.92342],[99.5263,15.92178],[99.5312,15.92034],[99.53257,15.92451],[99.53855,15.92482],[99.54472,15.92069],[99.5463,15.92094],[99.54674,15.91895],[99.5498,15.91878],[99.54905,15.9165],[99.55413,15.91584],[99.55343,15.91184],[99.55597,15.90862],[99.55509,15.90714],[99.55773,15.90618],[99.56211,15.90716],[99.56462,15.9054],[99.56912,15.90593],[99.57058,15.90441],[99.57102,15.90576],[99.57267,15.90427],[99.57345,15.90586],[99.57588,15.90597],[99.57632,15.90462],[99.578,15.90552],[99.5812,15.90333],[99.5854,15.90671],[99.59265,15.90638],[99.59745,15.90358],[99.59882,15.89758],[99.60618,15.89864],[99.61021,15.89594],[99.60989,15.89398],[99.61196,15.89262],[99.61272,15.89358],[99.61659,15.89246],[99.61623,15.89146],[99.61892,15.89039],[99.62039,15.88793],[99.62239,15.88665],[99.62412,15.8873],[99.62523,15.88187],[99.62673,15.88129],[99.62651,15.87956],[99.62905,15.87611],[99.6304,15.88108],[99.63379,15.88496],[99.63591,15.88542],[99.63778,15.88338],[99.64542,15.88628],[99.65817,15.87893],[99.66172,15.87515],[99.66176,15.87037],[99.65788,15.86215],[99.66243,15.85984],[99.66361,15.85531],[99.67521,15.86134],[99.68291,15.86317],[99.68556,15.869],[99.69782,15.87736],[99.70195,15.87524],[99.708,15.87543],[99.72345,15.87306],[99.73271,15.86539],[99.7359,15.86177],[99.73674,15.85857],[99.73974,15.85744],[99.7438,15.85833],[99.74331,15.86164],[99.74692,15.86705],[99.7475,15.87549],[99.75101,15.8813],[99.76354,15.89485],[99.76954,15.89703],[99.77353,15.90311],[99.76799,15.91598],[99.76918,15.92185],[99.7759,15.92425],[99.78254,15.92481],[99.78587,15.92741],[99.78823,15.9271],[99.7923,15.92283],[99.79536,15.92163],[99.80498,15.9206],[99.80695,15.92386],[99.8047,15.93011],[99.8072,15.9441],[99.81875,15.94718],[99.82519,15.95055],[99.82821,15.9581],[99.82826,15.96287],[99.83381,15.96507],[99.84745,15.98183],[99.84625,15.9975],[99.84734,15.99874],[99.84508,16.00589],[99.84518,16.02348],[99.85809,16.03028],[99.87203,16.03228],[99.87554,16.03414],[99.87367,16.03694],[99.88392,16.03964],[99.88553,16.03854],[99.8878,16.03951],[99.88864,16.03813],[99.89143,16.03857],[99.89143,16.03963],[99.89504,16.03945],[99.89512,16.04309],[99.89916,16.04488],[99.90382,16.04493],[99.90444,16.04646],[99.90259,16.04777],[99.9102,16.05167],[99.91124,16.04901],[99.91606,16.04968],[99.91621,16.04879],[99.9203,16.05018],[99.92272,16.05282],[99.92697,16.05153],[99.93136,16.0529],[99.93145,16.05477],[99.93506,16.05603],[99.93349,16.06036],[99.94145,16.06903],[99.94087,16.07192],[99.94809,16.07591],[99.95833,16.08633],[99.95817,16.09002],[99.96447,16.09685],[99.96332,16.09853],[99.9734,16.10869],[99.97289,16.11028],[99.97844,16.11279],[99.97778,16.11365],[99.98173,16.11713],[99.98432,16.11813],[99.98795,16.11729],[99.98744,16.12054],[99.98896,16.12029],[99.98942,16.12225],[99.99448,16.12185],[99.99467,16.12367],[99.99647,16.12301],[99.99773,16.12769],[99.9968,16.13327],[100.00108,16.1362],[100.00338,16.13965],[100.00477,16.13924],[100.00621,16.14278],[100.00984,16.14363],[100.01478,16.14912],[100.01672,16.14888],[100.01627,16.15453],[100.01824,16.15568],[100.02162,16.16247],[100.02418,16.17542],[100.02216,16.18884],[100.03386,16.19637],[100.03825,16.19628],[100.03842,16.19781],[100.04176,16.19977],[100.04124,16.20174],[100.0452,16.2036],[100.04469,16.20559],[100.04679,16.20718],[100.04709,16.21026],[100.03568,16.22209],[100.02687,16.24188],[100.02133,16.25063],[100.02141,16.253],[100.02677,16.25789],[100.02716,16.26775],[100.03117,16.27935],[100.02666,16.29078],[100.01913,16.29698],[100.02128,16.31287],[100.0197,16.31609],[100.01856,16.31471],[100.01618,16.31929],[100.0129,16.32037],[100.01462,16.32994],[100.01367,16.32977],[100.01283,16.33261],[100.00758,16.33269],[100.00558,16.33489],[100.00548,16.3394],[100.00366,16.34225],[100.00185,16.34279],[99.99782,16.35357],[99.99541,16.35626],[99.99487,16.36372],[99.98649,16.37226],[99.98369,16.37911],[99.98666,16.38937],[99.99406,16.40312],[99.99486,16.41651],[99.99969,16.4229],[100.00342,16.43319],[100.00007,16.44632],[100.00082,16.45341],[100.01014,16.47074],[100.02157,16.48361],[100.03458,16.5017],[100.02631,16.51156],[100.02491,16.51463],[100.02494,16.5202],[100.02025,16.52161],[100.01877,16.52017],[100.01062,16.52121],[100.01167,16.53021],[100.00841,16.53009],[100.01219,16.53962],[100.01106,16.54725],[100.01163,16.55408],[100.01402,16.55978],[100.01201,16.56052],[100.01109,16.56272],[100.01221,16.5734],[100.01378,16.57421],[100.0128,16.5753],[100.01489,16.58252],[100.01084,16.58122],[100.00746,16.58494],[100.00803,16.5859],[100.00591,16.58589],[100.00471,16.58486],[100.0056,16.58223],[100.00428,16.58145],[100.004,16.57907],[99.99754,16.57833],[99.99623,16.57953],[99.99286,16.57719],[99.98635,16.57833],[99.98627,16.57606],[99.98445,16.57463],[99.97087,16.5799],[99.96227,16.57909],[99.94261,16.57437],[99.92983,16.57663],[99.92545,16.57874],[99.92414,16.58668],[99.91449,16.60381],[99.91537,16.60951],[99.91214,16.6132],[99.90871,16.62431],[99.90525,16.62793],[99.90515,16.6305],[99.90279,16.63073],[99.89953,16.63673],[99.89839,16.64791],[99.89624,16.64921],[99.89587,16.6518],[99.89743,16.65804],[99.89542,16.65835],[99.89489,16.66072],[99.89349,16.66084],[99.89458,16.66428],[99.89024,16.66764],[99.88874,16.67109],[99.88854,16.67954],[99.8918,16.6864],[99.88472,16.69386],[99.8883,16.69492],[99.88889,16.69693],[99.8905,16.69757],[99.88927,16.69945],[99.88686,16.69934],[99.88515,16.70111],[99.89667,16.70554],[99.8922,16.70826],[99.88864,16.71504],[99.88369,16.7111],[99.87292,16.71535],[99.87553,16.71821],[99.87171,16.72502],[99.86583,16.72387],[99.86323,16.72871],[99.862,16.72865],[99.86014,16.73118],[99.85669,16.72898],[99.85341,16.73527],[99.84707,16.72685],[99.84736,16.72299],[99.84556,16.72052],[99.845,16.71521],[99.84317,16.71496],[99.84193,16.71626],[99.83543,16.71382],[99.83265,16.71477],[99.82908,16.71744],[99.82933,16.72237],[99.82831,16.72418],[99.82216,16.72031],[99.81711,16.72134],[99.81424,16.72039],[99.81194,16.71543],[99.80574,16.71343],[99.80348,16.71045],[99.80923,16.70366],[99.80985,16.69875],[99.80371,16.69847],[99.80077,16.69169],[99.79434,16.6888],[99.79299,16.68662],[99.78553,16.68517],[99.78088,16.68744],[99.77639,16.68764],[99.77269,16.68338],[99.76917,16.68272],[99.7596,16.68491],[99.76048,16.68816],[99.75889,16.69924],[99.75934,16.71062],[99.75563,16.72159],[99.75012,16.72089],[99.74832,16.72333],[99.74916,16.72554],[99.74163,16.7296],[99.74256,16.73503],[99.7457,16.73858],[99.74495,16.74409],[99.7427,16.74332],[99.74271,16.74173],[99.74097,16.74046],[99.73659,16.74009],[99.73323,16.73267],[99.72995,16.72952],[99.72308,16.72744],[99.71976,16.72256],[99.71459,16.72134],[99.70878,16.72479],[99.70502,16.72226],[99.70584,16.7193],[99.70434,16.71733],[99.70157,16.71862],[99.69937,16.71674],[99.69701,16.71655],[99.69519,16.71761],[99.69549,16.72104],[99.69364,16.72267],[99.69534,16.72869],[99.69325,16.73181],[99.69155,16.73067],[99.68588,16.73053],[99.6858,16.72967],[99.67961,16.72946],[99.67522,16.72761],[99.67471,16.72952],[99.67221,16.73029],[99.67047,16.73568],[99.66548,16.73773],[99.66427,16.73978],[99.65876,16.7406],[99.65837,16.74309],[99.65383,16.74646],[99.64711,16.74647],[99.64603,16.74313],[99.64316,16.7436],[99.63757,16.74947],[99.63586,16.74885],[99.63245,16.75122],[99.63072,16.75568],[99.62802,16.75633],[99.62759,16.7553],[99.62519,16.75701],[99.62221,16.75697],[99.62141,16.7603],[99.61953,16.76103],[99.61801,16.7646],[99.61452,16.76616],[99.61478,16.76742],[99.61223,16.7698],[99.61034,16.77358],[99.61158,16.77548],[99.61056,16.77634],[99.60868,16.77472],[99.60735,16.77832],[99.60565,16.77843],[99.60574,16.78086],[99.60442,16.78123],[99.6054,16.78461],[99.60242,16.78678],[99.60276,16.78917],[99.60156,16.78856],[99.60107,16.79029],[99.59888,16.79107],[99.59834,16.78985],[99.59398,16.7906],[99.59389,16.79213],[99.59183,16.79268],[99.5913,16.79548],[99.58938,16.79646],[99.58929,16.79897],[99.58519,16.79896],[99.58555,16.80143],[99.58196,16.80329],[99.58227,16.80496],[99.57961,16.8075],[99.57837,16.8072],[99.57977,16.80889],[99.57819,16.81146],[99.58011,16.81281],[99.57899,16.81341],[99.5788,16.81653],[99.5813,16.81942],[99.5789,16.82409],[99.57664,16.82561],[99.57674,16.82748],[99.5749,16.82813],[99.57516,16.82963],[99.57389,16.83011],[99.57504,16.83173],[99.57234,16.83512],[99.57375,16.83993],[99.57261,16.84111],[99.57417,16.84222],[99.57258,16.8427],[99.57367,16.84306],[99.57318,16.84571],[99.57445,16.84635],[99.5722,16.84804],[99.57366,16.84804],[99.57374,16.84921],[99.57075,16.85954],[99.56578,16.85876],[99.56583,16.85434],[99.55953,16.85309],[99.55651,16.85562],[99.55678,16.85809],[99.55004,16.86141],[99.54906,16.86369],[99.54483,16.86244],[99.54244,16.85774],[99.54423,16.84996],[99.54167,16.8398],[99.53762,16.83741],[99.53486,16.82706],[99.53065,16.82527],[99.52973,16.83517],[99.52713,16.83862],[99.5269,16.84158],[99.52414,16.84452],[99.52289,16.85245],[99.51702,16.85832],[99.51324,16.87318],[99.51288,16.87955],[99.51422,16.88249],[99.50727,16.88772],[99.49735,16.89256],[99.49697,16.89517],[99.49315,16.90093],[99.49206,16.90589],[99.48866,16.91051],[99.48403,16.90947],[99.48261,16.90714],[99.4797,16.90812],[99.47939,16.9069],[99.47387,16.90533],[99.47253,16.90241],[99.46961,16.90073],[99.46937,16.89854],[99.46646,16.8963],[99.46552,16.8934],[99.46683,16.89239],[99.46675,16.88958],[99.4631,16.8867],[99.46005,16.88119],[99.44968,16.87512],[99.44756,16.86989],[99.43657,16.87218],[99.43262,16.87586]]]]}}]}